GPS BIIR-5  (PRN 22)    
1 26407U 00040A   26191.26190744  .00000110  00000+0  00000+0 0  9995
2 26407  54.8491 214.2457 0120597 302.6821  81.8231  2.00557788190413
GPS BIIR-8  (PRN 16)    
1 27663U 03005A   26191.15416856  .00000110  00000+0  00000+0 0  9997
2 27663  54.8796 214.0562 0148192  53.1533  29.7363  2.00559273171776
GPS BIIR-11 (PRN 19)    
1 28190U 04009A   26191.29724102 -.00000012  00000+0  00000+0 0  9991
2 28190  54.8105 274.7528 0117019 174.1119 164.7266  2.00553861163409
GPS BIIR-13 (PRN 02)    
1 28474U 04045A   26191.26664860 -.00000080  00000+0  00000+0 0  9992
2 28474  55.1214 323.9670 0170095 316.9414  64.8542  2.00556809158890
GPS BIIRM-1 (PRN 17)    
1 28874U 05038A   26191.29576271 -.00000006  00000+0  00000+0 0  9998
2 28874  54.8594 272.2441 0128168 296.3525  70.9409  2.00564004152307
GPS BIIRM-2 (PRN 31)    
1 29486U 06042A   26190.11781788  .00000066  00000+0  00000+0 0  9990
2 29486  54.7126 150.4682 0107015  54.9780  80.6146  2.00568543144837
GPS BIIRM-3 (PRN 12)    
1 29601U 06052A   26191.35354650  .00000111  00000+0  00000+0 0  9992
2 29601  54.9327 213.0878 0084807  90.9879 270.0479  2.00559360143870
GPS BIIRM-4 (PRN 15)    
1 32260U 07047A   26190.16326571 -.00000040  00000+0  00000+0 0  9993
2 32260  54.1110  79.1599 0167587  87.8540 274.1065  2.00554162137251
GPS BIIRM-5 (PRN 29)    
1 32384U 07062A   26191.49141912 -.00000007  00000+0  00000+0 0  9991
2 32384  55.0132 273.2150 0036023 167.1675 199.6275  2.00561317135985
GPS BIIRM-6 (PRN 07)    
1 32711U 08012A   26191.56819272  .00000043  00000+0  00000+0 0  9999
2 32711  54.4997 148.9907 0211640 248.1071 109.6029  2.00572982134223
GPS BIIRM-8 (PRN 05)    
1 35752U 09043A   26191.23487374 -.00000053  00000+0  00000+0 0  9992
2 35752  56.2247  26.5474 0053760  84.1723  43.1557  2.00552975123820
GPS BIIF-1  (PRN 25)    
1 36585U 10022A   26191.63630903  .00000111  00000+0  00000+0 0  9992
2 36585  54.2689 207.6174 0126638  66.1516 110.6690  2.00563498118067
GPS BIIF-3  (PRN 24)    
1 38833U 12053A   26191.25023182  .00000035  00000+0  00000+0 0  9994
2 38833  53.5890 142.6546 0181683  66.1329 295.7288  2.00567808 99903
GPS BIIF-4  (PRN 27)    
1 39166U 13023A   26191.11781976  .00000003  00000+0  00000+0 0  9994
2 39166  54.4865 268.0387 0141385  51.1056 310.2117  2.00563312 96342
GPS BIIF-5  (PRN 30)    
1 39533U 14008A   26191.11963969  .00000048  00000+0  00000+0 0  9999
2 39533  53.6572 148.3845 0084176 231.5339 127.6822  2.00561211 90148
GPS BIIF-6  (PRN 06)    
1 39741U 14026A   26191.39556233 -.00000080  00000+0  00000+0 0  9999
2 39741  56.4859 330.6145 0038119 325.9139  33.8410  2.00559176 89000
GPS BIIF-7  (PRN 09)    
1 40105U 14045A   26190.98872161 -.00000037  00000+0  00000+0 0  9993
2 40105  55.3675  87.5565 0034204 118.3307 242.0477  2.00559876 86535
GPS BIIF-8  (PRN 03)    
1 40294U 14068A   26189.85970982 -.00000050  00000+0  00000+0 0  9996
2 40294  57.0024  30.1204 0067446  71.3730 289.4121  2.00577411 85644
GPS BIIF-9  (PRN 26)    
1 40534U 15013A   26190.99834083  .00000112  00000+0  00000+0 0  9990
2 40534  53.1666 203.2341 0110175  40.3280 320.5320  2.00549961 82283
GPS BIIF-10 (PRN 08)    
1 40730U 15033A   26191.15653412  .00000007  00000+0  00000+0 0  9997
2 40730  53.9649 266.1387 0115274  30.2838 330.4454  2.00555017 80454
GPS BIIF-11 (PRN 10)    
1 41019U 15062A   26191.21161638 -.00000050  00000+0  00000+0 0  9990
2 41019  56.9748  29.9248 0112642 230.9097 128.1346  2.00566916 78292
GPS BIIF-12 (PRN 32)    
1 41328U 16007A   26189.80752889 -.00000030  00000+0  00000+0 0  9997
2 41328  55.5370  88.6024 0096602 247.6357 111.3718  2.00575699 76277
GPS BIII-1  (PRN 04)    
1 43873U 18109A   26191.18934832 -.00000035  00000+0  00000+0 0  9998
2 43873  55.6952  91.2795 0038527 197.3237 335.0463  2.00562552 55538
GPS BIII-2  (PRN 18)    
1 44506U 19056A   26190.83972038 -.00000079  00000+0  00000+0 0  9993
2 44506  55.6250 330.2434 0063211 198.0806 346.0647  2.00569870 50527
GPS BIII-3  (PRN 23)    
1 45854U 20041A   26190.41363906 -.00000051  00000+0  00000+0 0  9998
2 45854  56.6838  28.0825 0064868 204.5737 329.3412  2.00557912 44484
GPS BIII-4  (PRN 14)    
1 46826U 20078A   26191.43737872  .00000110  00000+0  00000+0 0  9993
2 46826  53.9778 209.8358 0074430 207.6981 322.5291  2.00564819 41973
GPS BIII-5  (PRN 11)    
1 48859U 21054A   26191.45463917 -.00000082  00000+0  00000+0 0  9993
2 48859  55.1624 331.5250 0026341 228.5038 140.5391  2.00567302 37224
GPS BIII-6  (PRN 28)    
1 55268U 23009A   26191.13810753  .00000048  00000+0  00000+0 0  9997
2 55268  55.1237 147.6170 0006209 320.5296 218.5554  2.00569891 25705
GPS BIII-7  (PRN 01)    
1 62339U 24242A   26191.27208483 -.00000082  00000+0  00000+0 0  9999
2 62339  54.8387 333.2464 0017772   3.9598 354.1894  2.00571820 11712
GPS BIII-8  (PRN 21)    
1 64202U 25116A   26191.01629376 -.00000054  00000+0  00000+0 0  9990
2 64202  55.2518  30.2129 0008288 339.6423  16.9014  2.00574022  8321
GPS BIII-9  (PRN 20)    
1 67588U 26017A   26191.13115220 -.00000037  00000+0  00000+0 0  9993
2 67588  55.1027  87.8344 0021569 259.7592 100.0304  2.00570566432077
GPS BIII-10 (PRN 13)    
1 68791U 26087A   26191.44189421  .00000113  00000+0  00000+0 0  9999
2 68791  54.9621 206.8682 0020521 106.5172 323.3161  2.00572139  1306
